OBJECT_NAME,OBJECT_ID,EPOCH,MEAN_MOTION,ECCENTRICITY,INCLINATION,RA_OF_ASC_NODE,ARG_OF_PERICENTER,MEAN_ANOMALY,EPHEMERIS_TYPE,CLASSIFICATION_TYPE,NORAD_CAT_ID,ELEMENT_SET_NO,REV_AT_EPOCH,BSTAR,MEAN_MOTION_DOT,MEAN_MOTION_DDOT
STARLINK-32258,2024-155R,2026-06-28T20:28:34.275072,15.34408036,.00010109,53.1594,332.3955,67.7250,292.3860,0,U,60939,999,10332,.17676456E-3,.5602E-4,0
STARLINK-32251,2024-155S,2026-06-28T19:28:04.639584,15.34424271,.00011149,53.1612,332.8459,75.7592,284.3535,0,U,60940,999,10336,.10432043E-3,.3153E-4,0
STARLINK-32224,2024-155T,2026-06-28T21:20:04.692480,15.34400030,.00005988,53.1607,332.6155,88.9602,271.1470,0,U,60941,999,10338,.13406928E-3,.4156E-4,0
STARLINK-32184,2024-155U,2026-06-28T20:34:38.053632,15.34411522,.00009668,53.1593,332.4254,61.5784,298.5316,0,U,60942,999,10332,.20851434E-3,.6678E-4,0
STARLINK-32288,2024-155V,2026-06-28T17:30:04.799808,15.34388844,.00008591,53.1624,333.0412,84.7843,275.3257,0,U,60943,999,10330,.49973787E-4,.1312E-4,0
STARLINK-32276,2024-155W,2026-06-28T20:07:29.936352,15.34403932,.00008194,53.1601,333.0085,84.2064,275.9032,0,U,60944,999,10341,.35980234E-3,.11801E-3,0
YAOGAN-43 02A,2024-156A,2026-06-28T23:29:01.116096,15.50662252,.00039882,34.9952,75.4599,326.9584,33.0890,0,U,60945,999,10179,.81143337E-3,.48283E-3,0
YAOGAN-43 02B,2024-156B,2026-06-28T23:34:03.186048,15.23011701,.00045308,34.9942,123.8410,218.1230,141.9165,0,U,60946,999,10124,.33509387E-3,.8049E-4,0
YAOGAN-43 02C,2024-156C,2026-06-28T23:27:29.185632,15.23032286,.00025102,34.9978,123.9785,144.0907,215.9977,0,U,60947,999,10124,.22601738E-3,.5417E-4,0
YAOGAN-43 02D,2024-156D,2026-06-28T23:37:44.457312,15.23028685,.00023533,34.9916,123.7547,340.5735,19.4889,0,U,60948,999,10124,.27743988E-3,.6659E-4,0
YAOGAN-43 02E,2024-156E,2026-06-28T23:42:52.863840,15.22933729,.00028947,34.9955,123.9563,121.5538,238.5460,0,U,60949,999,10124,.40534968E-3,.9722E-4,0
YAOGAN-43 02F,2024-156F,2026-06-28T23:29:27.340224,15.23008984,.00006719,34.9924,123.7188,239.4736,120.5912,0,U,60950,999,10124,.26462042E-3,.6345E-4,0
SENTINEL-2C,2024-157A,2026-06-28T22:05:55.786848,14.30820822,.00009133,98.5692,254.5369,90.8997,269.2290,0,U,60989,999,9466,.54032552E-4,.98E-6,0
STARLINK-11289 [DTC],2024-158B,2026-06-28T23:01:07.326048,15.69707223,.00010883,53.1596,92.5352,69.5909,290.5226,0,U,60991,999,10507,.4194452E-5,-.8E-6,0
STARLINK-11282 [DTC],2024-158C,2026-06-28T11:08:50.462016,15.69705866,.00010944,53.1596,95.1430,87.9630,272.1513,0,U,60992,999,10499,.13104728E-4,.999E-5,0
STARLINK-11283 [DTC],2024-158D,2026-06-28T22:40:04.665216,15.69706354,.00008555,53.1576,93.1725,79.3459,280.7656,0,U,60993,999,10506,.2828367E-5,-.246E-5,0
STARLINK-11267 [DTC],2024-158E,2026-06-28T22:33:00.807552,15.69709224,.00010503,53.1591,93.1446,80.5077,279.6060,0,U,60994,999,10506,.1028486E-5,-.464E-5,0
STARLINK-11269 [DTC],2024-158F,2026-06-28T22:25:56.777088,15.69707716,.00006879,53.1595,93.1067,121.4243,238.6842,0,U,60995,999,10505,.7522919E-5,.323E-5,0
STARLINK-11281 [DTC],2024-158G,2026-06-28T22:18:52.981632,15.69710350,.00008671,53.1598,93.0769,86.5203,273.5914,0,U,60996,999,10505,.624274E-5,.168E-5,0
STARLINK-11260 [DTC],2024-158H,2026-06-28T23:46:11.477568,15.69705927,.00008698,53.1589,70.4324,91.5171,268.5947,0,U,60997,999,10543,.7022547E-5,.262E-5,0
STARLINK-11287 [DTC],2024-158J,2026-06-28T22:11:48.935616,15.69706120,.00004521,53.1591,93.0412,72.4118,287.6949,0,U,60998,999,10505,.7410366E-5,.31E-5,0
STARLINK-11270 [DTC],2024-158K,2026-06-28T23:36:26.363808,15.69716895,.00012997,53.1572,92.6957,40.5728,319.5387,0,U,60999,999,10506,.12974668E-2,.159704E-2,0
STARLINK-11290 [DTC],2024-158L,2026-06-28T21:57:41.020704,15.69717449,.00007995,53.1575,92.9758,98.3802,261.7307,0,U,61000,999,10512,-.222547E-6,-.615E-5,0
STARLINK-11274 [DTC],2024-158M,2026-06-28T21:43:33.743424,15.69709000,.00010304,53.1595,92.9105,60.7541,299.3580,0,U,61001,999,10505,.309284E-6,-.551E-5,0
STARLINK-11288 [DTC],2024-158N,2026-06-28T23:08:10.788864,15.69709758,.00005317,53.1576,92.5669,101.0950,259.0128,0,U,61002,999,10506,.3135991E-5,-.208E-5,0
STARLINK-32279,2024-158P,2026-06-28T12:57:05.538816,15.34387712,.0001458,53.1622,269.8848,91.6308,268.4861,0,U,61003,999,10263,.49351588E-4,.1291E-4,0
STARLINK-32336,2024-158Q,2026-06-28T13:06:10.778112,15.34391435,.00012845,53.1606,269.9288,118.5811,241.5321,0,U,61004,999,10263,.72892356E-4,.2087E-4,0
STARLINK-32284,2024-158R,2026-06-28T12:54:03.350592,15.34393805,.00008759,53.1604,269.8724,70.2381,289.8716,0,U,61005,999,10256,.58857018E-4,.1613E-4,0
STARLINK-32282,2024-158S,2026-06-28T22:47:08.055456,15.34398252,.00013678,53.1605,268.1731,93.9408,266.1751,0,U,61006,999,10269,.1503391E-3,.4706E-4,0
STARLINK-32360,2024-158T,2026-06-28T14:50:23.827776,15.34383883,.00011026,53.1598,253.6630,87.8873,272.2256,0,U,61007,999,10279,-.43245828E-4,-.1836E-4,0
