STARLINK-32258          
1 60939U 24155R   26179.85317448  .00005602  00000+0  17676-3 0  9991
2 60939  53.1594 332.3955 0001010  67.7250 292.3860 15.34408036103328
STARLINK-32251          
1 60940U 24155S   26179.81116481  .00003153  00000+0  10432-3 0  9995
2 60940  53.1612 332.8459 0001114  75.7592 284.3535 15.34424271103361
STARLINK-32224          
1 60941U 24155T   26179.88894320  .00004156  00000+0  13407-3 0  9997
2 60941  53.1607 332.6155 0000598  88.9602 271.1470 15.34400030103381
STARLINK-32184          
1 60942U 24155U   26179.85738488  .00006678  00000+0  20851-3 0  9999
2 60942  53.1593 332.4254 0000966  61.5784 298.5316 15.34411522103325
STARLINK-32288          
1 60943U 24155V   26179.72922222  .00001312  00000+0  49974-4 0  9995
2 60943  53.1624 333.0412 0000859  84.7843 275.3257 15.34388844103303
STARLINK-32276          
1 60944U 24155W   26179.83854093  .00011801  00000+0  35980-3 0  9993
2 60944  53.1601 333.0085 0000819  84.2064 275.9032 15.34403932103416
YAOGAN-43 02A           
1 60945U 24156A   26179.97848514  .00048283  00000+0  81143-3 0  9997
2 60945  34.9952  75.4599 0003988 326.9584  33.0890 15.50662252101797
YAOGAN-43 02B           
1 60946U 24156B   26179.98198132  .00008049  00000+0  33509-3 0  9992
2 60946  34.9942 123.8410 0004530 218.1230 141.9165 15.23011701101242
YAOGAN-43 02C           
1 60947U 24156C   26179.97742113  .00005417  00000+0  22602-3 0  9994
2 60947  34.9978 123.9785 0002510 144.0907 215.9977 15.23032286101246
YAOGAN-43 02D           
1 60948U 24156D   26179.98454233  .00006659  00000+0  27744-3 0  9990
2 60948  34.9916 123.7547 0002353 340.5735  19.4889 15.23028685101247
YAOGAN-43 02E           
1 60949U 24156E   26179.98811185  .00009722  00000+0  40535-3 0  9991
2 60949  34.9955 123.9563 0002894 121.5538 238.5460 15.22933729101241
YAOGAN-43 02F           
1 60950U 24156F   26179.97878866  .00006345  00000+0  26462-3 0  9992
2 60950  34.9924 123.7188 0000671 239.4736 120.5912 15.23008984101249
SENTINEL-2C             
1 60989U 24157A   26179.92078457  .00000098  00000+0  54033-4 0  9993
2 60989  98.5692 254.5369 0000913  90.8997 269.2290 14.30820822 94667
STARLINK-11289 [DTC]    
1 60991U 24158B   26179.95911257 -.00000080  00000+0  41945-5 0  9995
2 60991  53.1596  92.5352 0001088  69.5909 290.5226 15.69707223105078
STARLINK-11282 [DTC]    
1 60992U 24158C   26179.46447294  .00000999  00000+0  13105-4 0  9991
2 60992  53.1596  95.1430 0001094  87.9630 272.1513 15.69705866104993
STARLINK-11283 [DTC]    
1 60993U 24158D   26179.94449844 -.00000246  00000+0  28284-5 0  9999
2 60993  53.1576  93.1725 0000855  79.3459 280.7656 15.69706354105060
STARLINK-11267 [DTC]    
1 60994U 24158E   26179.93959268 -.00000464  00000+0  10285-5 0  9999
2 60994  53.1591  93.1446 0001050  80.5077 279.6060 15.69709224105061
STARLINK-11269 [DTC]    
1 60995U 24158F   26179.93468492  .00000323  00000+0  75229-5 0  9996
2 60995  53.1595  93.1067 0000687 121.4243 238.6842 15.69707716105056
STARLINK-11281 [DTC]    
1 60996U 24158G   26179.92977988  .00000168  00000+0  62427-5 0  9994
2 60996  53.1598  93.0769 0000867  86.5203 273.5914 15.69710350105051
STARLINK-11260 [DTC]    
1 60997U 24158H   26179.99041062  .00000262  00000+0  70225-5 0  9997
2 60997  53.1589  70.4324 0000869  91.5171 268.5947 15.69705927105436
STARLINK-11287 [DTC]    
1 60998U 24158J   26179.92487194  .00000310  00000+0  74104-5 0  9995
2 60998  53.1591  93.0412 0000452  72.4118 287.6949 15.69706120105054
STARLINK-11270 [DTC]    
1 60999U 24158K   26179.98363847  .00159704  00000+0  12975-2 0  9997
2 60999  53.1572  92.6957 0001299  40.5728 319.5387 15.69716895105068
STARLINK-11290 [DTC]    
1 61000U 24158L   26179.91505811 -.00000615  00000+0 -22255-6 0  9997
2 61000  53.1575  92.9758 0000799  98.3802 261.7307 15.69717449105128
STARLINK-11274 [DTC]    
1 61001U 24158M   26179.90525166 -.00000551  00000+0  30928-6 0  9996
2 61001  53.1595  92.9105 0001030  60.7541 299.3580 15.69709000105055
STARLINK-11288 [DTC]    
1 61002U 24158N   26179.96401376 -.00000208  00000+0  31360-5 0  9998
2 61002  53.1576  92.5669 0000531 101.0950 259.0128 15.69709758105066
STARLINK-32279          
1 61003U 24158P   26179.53964744  .00001291  00000+0  49352-4 0  9996
2 61003  53.1622 269.8848 0001458  91.6308 268.4861 15.34387712102639
STARLINK-32336          
1 61004U 24158Q   26179.54595808  .00002087  00000+0  72892-4 0  9998
2 61004  53.1606 269.9288 0001284 118.5811 241.5321 15.34391435102636
STARLINK-32284          
1 61005U 24158R   26179.53753878  .00001613  00000+0  58857-4 0  9990
2 61005  53.1604 269.8724 0000875  70.2381 289.8716 15.34393805102568
STARLINK-32282          
1 61006U 24158S   26179.94939879  .00004706  00000+0  15034-3 0  9998
2 61006  53.1605 268.1731 0001367  93.9408 266.1751 15.34398252102691
STARLINK-32360          
1 61007U 24158T   26179.61833134 -.00001836  00000+0 -43246-4 0  9990
2 61007  53.1598 253.6630 0001102  87.8873 272.2256 15.34383883102798
